IRIDIUM 130             
1 43073U 17083D   24235.96374038 -.00000116  00000+0 -48397-4 0  9996
2 43073  86.3942 239.3503 0002064  89.9263 270.2170 14.34217267349052
IRIDIUM 151             
1 43074U 17083E   24236.07790775  .00000028  00000+0  28160-5 0  9997
2 43074  86.3931 239.1348 0002410  93.8188 266.3283 14.34217462349093
IRIDIUM 134             
1 43075U 17083F   24235.76711989 -.00000090  00000+0 -39164-4 0  9999
2 43075  86.3936 239.2638 0001981  89.2902 270.8520 14.34217237349013
IRIDIUM 137             
1 43076U 17083G   24235.71003697  .00000188  00000+0  60148-4 0  9997
2 43076  86.3934 239.3671 0002286 103.6168 256.5282 14.34216792349071
IRIDIUM 141             
1 43077U 17083H   24235.77346049  .00000330  00000+0  11077-3 0  9990
2 43077  86.3929 239.2090 0002452  87.0447 273.1029 14.34217249349083
IRIDIUM 153             
1 43078U 17083J   24235.93493396  .00000027  00000+0  26409-5 0  9997
2 43078  86.3991 207.6303 0002965  81.9148 278.2384 14.34212829350215
IRIDIUM 131             
1 43079U 17083K   24235.97008284  .00000048  00000+0  10026-4 0  9990
2 43079  86.3935 239.2684 0002327  94.4945 265.6517 14.34216956349045
